ONEWEB-0631             
1 55171U 23004AH  26148.98060238  .00000060  00000+0  11998-3 0  9991
2 55171  87.9166 339.2579 0001784 105.4415 254.6914 13.18688114167147
ONEWEB-0709             
1 55172U 23004AJ  26149.20644273 -.00000381  00000+0 -11108-2 0  9995
2 55172  87.8905  24.8569 0001006  97.3608 262.7635 13.11416576163380
ONEWEB-0710             
1 55173U 23004AK  26148.99193528  .00000039  00000+0  66586-4 0  9993
2 55173  87.9149   9.6839 0001952  89.3037 270.8318 13.17649702165059
ONEWEB-0711             
1 55174U 23004AL  26149.17764839  .00003385  00000+0  95146-2 0  9993
2 55174  87.8908  24.8491 0002442 100.3097 259.8307 13.11403845163345
ONEWEB-0713             
1 55175U 23004AM  26149.19627786  .00000163  00000+0  42272-3 0  9999
2 55175  87.8908  24.8468 0002102  88.9722 271.1646 13.11415338163331
ONEWEB-0715             
1 55176U 23004AN  26149.19119429  .00000401  00000+0  10956-2 0  9998
2 55176  87.8908  24.8489 0001430 104.5506 255.5781 13.11415400163373
ONEWEB-0716             
1 55177U 23004AP  26149.06112051  .00000077  00000+0  16495-3 0  9993
2 55177  87.9151   9.6724 0001739  77.9763 282.1563 13.17649916165067
ONEWEB-0717             
1 55178U 23004AQ  26149.04424878  .00000649  00000+0  16393-2 0  9996
2 55178  87.9160   9.6616 0002163  99.2314 260.9062 13.17648947165116
ONEWEB-0719             
1 55179U 23004AR  26149.05437231  .00000047  00000+0  88632-4 0  9994
2 55179  87.9158   9.6401 0001873  80.5961 279.5382 13.17649824165064
ONEWEB-0530             
1 55796U 23029A   26148.84770037  .00000066  00000+0  12919-3 0  9991
2 55796  87.9169 278.3263 0002358 100.3251 259.8148 13.20769927158596
ONEWEB-0534             
1 55797U 23029B   26148.83591237  .00000058  00000+0  11081-3 0  9994
2 55797  87.9170 278.3288 0001818  97.1737 262.9603 13.20771270158593
ONEWEB-0556             
1 55798U 23029C   26148.91843216 -.00000022  00000+0 -86671-4 0  9992
2 55798  87.9168 278.3125 0002283  78.3648 281.7741 13.20771806158609
ONEWEB-0562             
1 55799U 23029D   26148.90493711 -.00000003  00000+0 -39270-4 0  9995
2 55799  87.9169 278.2956 0002710  92.0423 268.1021 13.20771711158606
ONEWEB-0563             
1 55800U 23029E   26148.82414596 -.00000025  00000+0 -92232-4 0  9994
2 55800  87.9167 278.3426 0001700  95.4566 264.6761 13.20771835158589
ONEWEB-0564             
1 55801U 23029F   26148.81741098 -.00000035  00000+0 -11868-3 0  9990
2 55801  87.9169 278.3169 0002298  97.4643 262.6751 13.20773102158594
ONEWEB-0638             
1 55802U 23029G   26148.90691341  .00000002  00000+0 -29554-4 0  9991
2 55802  87.8935 293.5982 0002161  85.3588 274.7789 13.14501707156866
