[{"OBJECT_NAME":"ONEWEB-0631","OBJECT_ID":"2023-004AH","EPOCH":"2026-05-28T23:32:04.045632","MEAN_MOTION":13.18688114,"ECCENTRICITY":0.0001784,"INCLINATION":87.9166,"RA_OF_ASC_NODE":339.2579,"ARG_OF_PERICENTER":105.4415,"MEAN_ANOMALY":254.6914,"EPHEMERIS_TYPE":0,"CLASSIFICATION_TYPE":"U","NORAD_CAT_ID":55171,"ELEMENT_SET_NO":999,"REV_AT_EPOCH":16714,"BSTAR":0.00011998,"MEAN_MOTION_DOT":6e-07,"MEAN_MOTION_DDOT":0.0},{"OBJECT_NAME":"ONEWEB-0709","OBJECT_ID":"2023-004AJ","EPOCH":"2026-05-29T04:57:16.651872","MEAN_MOTION":13.11416576,"ECCENTRICITY":0.0001006,"INCLINATION":87.8905,"RA_OF_ASC_NODE":24.8569,"ARG_OF_PERICENTER":97.3608,"MEAN_ANOMALY":262.7635,"EPHEMERIS_TYPE":0,"CLASSIFICATION_TYPE":"U","NORAD_CAT_ID":55172,"ELEMENT_SET_NO":999,"REV_AT_EPOCH":16338,"BSTAR":-0.0011108000000000001,"MEAN_MOTION_DOT":-3.81e-06,"MEAN_MOTION_DDOT":0.0},{"OBJECT_NAME":"ONEWEB-0710","OBJECT_ID":"2023-004AK","EPOCH":"2026-05-28T23:48:23.208192","MEAN_MOTION":13.17649702,"ECCENTRICITY":0.0001952,"INCLINATION":87.9149,"RA_OF_ASC_NODE":9.6839,"ARG_OF_PERICENTER":89.3037,"MEAN_ANOMALY":270.8318,"EPHEMERIS_TYPE":0,"CLASSIFICATION_TYPE":"U","NORAD_CAT_ID":55173,"ELEMENT_SET_NO":999,"REV_AT_EPOCH":16505,"BSTAR":6.6586e-05,"MEAN_MOTION_DOT":3.9e-07,"MEAN_MOTION_DDOT":0.0},{"OBJECT_NAME":"ONEWEB-0711","OBJECT_ID":"2023-004AL","EPOCH":"2026-05-29T04:15:48.820896","MEAN_MOTION":13.11403845,"ECCENTRICITY":0.0002442,"INCLINATION":87.8908,"RA_OF_ASC_NODE":24.8491,"ARG_OF_PERICENTER":100.3097,"MEAN_ANOMALY":259.8307,"EPHEMERIS_TYPE":0,"CLASSIFICATION_TYPE":"U","NORAD_CAT_ID":55174,"ELEMENT_SET_NO":999,"REV_AT_EPOCH":16334,"BSTAR":0.0095146,"MEAN_MOTION_DOT":3.385e-05,"MEAN_MOTION_DDOT":0.0},{"OBJECT_NAME":"ONEWEB-0713","OBJECT_ID":"2023-004AM","EPOCH":"2026-05-29T04:42:38.407104","MEAN_MOTION":13.11415338,"ECCENTRICITY":0.0002102,"INCLINATION":87.8908,"RA_OF_ASC_NODE":24.8468,"ARG_OF_PERICENTER":88.9722,"MEAN_ANOMALY":271.1646,"EPHEMERIS_TYPE":0,"CLASSIFICATION_TYPE":"U","NORAD_CAT_ID":55175,"ELEMENT_SET_NO":999,"REV_AT_EPOCH":16333,"BSTAR":0.00042272,"MEAN_MOTION_DOT":1.63e-06,"MEAN_MOTION_DDOT":0.0},{"OBJECT_NAME":"ONEWEB-0715","OBJECT_ID":"2023-004AN","EPOCH":"2026-05-29T04:35:19.186656","MEAN_MOTION":13.114154,"ECCENTRICITY":0.000143,"INCLINATION":87.8908,"RA_OF_ASC_NODE":24.8489,"ARG_OF_PERICENTER":104.5506,"MEAN_ANOMALY":255.5781,"EPHEMERIS_TYPE":0,"CLASSIFICATION_TYPE":"U","NORAD_CAT_ID":55176,"ELEMENT_SET_NO":999,"REV_AT_EPOCH":16337,"BSTAR":0.0010956000000000002,"MEAN_MOTION_DOT":4.01e-06,"MEAN_MOTION_DDOT":0.0},{"OBJECT_NAME":"ONEWEB-0716","OBJECT_ID":"2023-004AP","EPOCH":"2026-05-29T01:28:00.812064","MEAN_MOTION":13.17649916,"ECCENTRICITY":0.0001739,"INCLINATION":87.9151,"RA_OF_ASC_NODE":9.6724,"ARG_OF_PERICENTER":77.9763,"MEAN_ANOMALY":282.1563,"EPHEMERIS_TYPE":0,"CLASSIFICATION_TYPE":"U","NORAD_CAT_ID":55177,"ELEMENT_SET_NO":999,"REV_AT_EPOCH":16506,"BSTAR":0.00016495000000000002,"MEAN_MOTION_DOT":7.7e-07,"MEAN_MOTION_DDOT":0.0},{"OBJECT_NAME":"ONEWEB-0717","OBJECT_ID":"2023-004AQ","EPOCH":"2026-05-29T01:03:43.094592","MEAN_MOTION":13.17648947,"ECCENTRICITY":0.0002163,"INCLINATION":87.916,"RA_OF_ASC_NODE":9.6616,"ARG_OF_PERICENTER":99.2314,"MEAN_ANOMALY":260.9062,"EPHEMERIS_TYPE":0,"CLASSIFICATION_TYPE":"U","NORAD_CAT_ID":55178,"ELEMENT_SET_NO":999,"REV_AT_EPOCH":16511,"BSTAR":0.0016393,"MEAN_MOTION_DOT":6.49e-06,"MEAN_MOTION_DDOT":0.0},{"OBJECT_NAME":"ONEWEB-0719","OBJECT_ID":"2023-004AR","EPOCH":"2026-05-29T01:18:17.767584","MEAN_MOTION":13.17649824,"ECCENTRICITY":0.0001873,"INCLINATION":87.9158,"RA_OF_ASC_NODE":9.6401,"ARG_OF_PERICENTER":80.5961,"MEAN_ANOMALY":279.5382,"EPHEMERIS_TYPE":0,"CLASSIFICATION_TYPE":"U","NORAD_CAT_ID":55179,"ELEMENT_SET_NO":999,"REV_AT_EPOCH":16506,"BSTAR":8.8632e-05,"MEAN_MOTION_DOT":4.7e-07,"MEAN_MOTION_DDOT":0.0},{"OBJECT_NAME":"ONEWEB-0530","OBJECT_ID":"2023-029A","EPOCH":"2026-05-28T20:20:41.311968","MEAN_MOTION":13.20769927,"ECCENTRICITY":0.0002358,"INCLINATION":87.9169,"RA_OF_ASC_NODE":278.3263,"ARG_OF_PERICENTER":100.3251,"MEAN_ANOMALY":259.8148,"EPHEMERIS_TYPE":0,"CLASSIFICATION_TYPE":"U","NORAD_CAT_ID":55796,"ELEMENT_SET_NO":999,"REV_AT_EPOCH":15859,"BSTAR":0.00012919,"MEAN_MOTION_DOT":6.6e-07,"MEAN_MOTION_DDOT":0.0},{"OBJECT_NAME":"ONEWEB-0534","OBJECT_ID":"2023-029B","EPOCH":"2026-05-28T20:03:42.828768","MEAN_MOTION":13.2077127,"ECCENTRICITY":0.0001818,"INCLINATION":87.917,"RA_OF_ASC_NODE":278.3288,"ARG_OF_PERICENTER":97.1737,"MEAN_ANOMALY":262.9603,"EPHEMERIS_TYPE":0,"CLASSIFICATION_TYPE":"U","NORAD_CAT_ID":55797,"ELEMENT_SET_NO":999,"REV_AT_EPOCH":15859,"BSTAR":0.00011081,"MEAN_MOTION_DOT":5.8e-07,"MEAN_MOTION_DDOT":0.0},{"OBJECT_NAME":"ONEWEB-0556","OBJECT_ID":"2023-029C","EPOCH":"2026-05-28T22:02:32.538624","MEAN_MOTION":13.20771806,"ECCENTRICITY":0.0002283,"INCLINATION":87.9168,"RA_OF_ASC_NODE":278.3125,"ARG_OF_PERICENTER":78.3648,"MEAN_ANOMALY":281.7741,"EPHEMERIS_TYPE":0,"CLASSIFICATION_TYPE":"U","NORAD_CAT_ID":55798,"ELEMENT_SET_NO":999,"REV_AT_EPOCH":15860,"BSTAR":-8.6671e-05,"MEAN_MOTION_DOT":-2.2e-07,"MEAN_MOTION_DDOT":0.0},{"OBJECT_NAME":"ONEWEB-0562","OBJECT_ID":"2023-029D","EPOCH":"2026-05-28T21:43:06.566304","MEAN_MOTION":13.20771711,"ECCENTRICITY":0.000271,"INCLINATION":87.9169,"RA_OF_ASC_NODE":278.2956,"ARG_OF_PERICENTER":92.0423,"MEAN_ANOMALY":268.1021,"EPHEMERIS_TYPE":0,"CLASSIFICATION_TYPE":"U","NORAD_CAT_ID":55799,"ELEMENT_SET_NO":999,"REV_AT_EPOCH":15860,"BSTAR":-3.927e-05,"MEAN_MOTION_DOT":-3e-08,"MEAN_MOTION_DDOT":0.0},{"OBJECT_NAME":"ONEWEB-0563","OBJECT_ID":"2023-029E","EPOCH":"2026-05-28T19:46:46.210944","MEAN_MOTION":13.20771835,"ECCENTRICITY":0.00017,"INCLINATION":87.9167,"RA_OF_ASC_NODE":278.3426,"ARG_OF_PERICENTER":95.4566,"MEAN_ANOMALY":264.6761,"EPHEMERIS_TYPE":0,"CLASSIFICATION_TYPE":"U","NORAD_CAT_ID":55800,"ELEMENT_SET_NO":999,"REV_AT_EPOCH":15858,"BSTAR":-9.223200000000001e-05,"MEAN_MOTION_DOT":-2.5e-07,"MEAN_MOTION_DDOT":0.0},{"OBJECT_NAME":"ONEWEB-0564","OBJECT_ID":"2023-029F","EPOCH":"2026-05-28T19:37:04.308672","MEAN_MOTION":13.20773102,"ECCENTRICITY":0.0002298,"INCLINATION":87.9169,"RA_OF_ASC_NODE":278.3169,"ARG_OF_PERICENTER":97.4643,"MEAN_ANOMALY":262.6751,"EPHEMERIS_TYPE":0,"CLASSIFICATION_TYPE":"U","NORAD_CAT_ID":55801,"ELEMENT_SET_NO":999,"REV_AT_EPOCH":15859,"BSTAR":-0.00011868,"MEAN_MOTION_DOT":-3.5e-07,"MEAN_MOTION_DDOT":0.0},{"OBJECT_NAME":"ONEWEB-0638","OBJECT_ID":"2023-029G","EPOCH":"2026-05-28T21:45:57.318624","MEAN_MOTION":13.14501707,"ECCENTRICITY":0.0002161,"INCLINATION":87.8935,"RA_OF_ASC_NODE":293.5982,"ARG_OF_PERICENTER":85.3588,"MEAN_ANOMALY":274.7789,"EPHEMERIS_TYPE":0,"CLASSIFICATION_TYPE":"U","NORAD_CAT_ID":55802,"ELEMENT_SET_NO":999,"REV_AT_EPOCH":15686,"BSTAR":-2.9554000000000005e-05,"MEAN_MOTION_DOT":2e-08,"MEAN_MOTION_DDOT":0.0}]